{
    "links": {
        "self": "http://www.neowsapp.com/rest/v1/neo/3878626?api_key=iIulBulltgU6a56xZRHN4H3l9WmuAYTsLGpBGhQ2"
    },
    "id": "3878626",
    "neo_reference_id": "3878626",
    "name": "(2019 TA6)",
    "designation": "2019 TA6",
    "nasa_jpl_url": "http://ssd.jpl.nasa.gov/sbdb.cgi?sstr=3878626",
    "absolute_magnitude_h": 23.6,
    "estimated_diameter": {
        "kilometers": {
            "estimated_diameter_min": 0.0506471459,
            "estimated_diameter_max": 0.1132504611
        },
        "meters": {
            "estimated_diameter_min": 50.6471458835,
            "estimated_diameter_max": 113.2504610618
        },
        "miles": {
            "estimated_diameter_min": 0.0314706677,
            "estimated_diameter_max": 0.0703705522
        },
        "feet": {
            "estimated_diameter_min": 166.1651821003,
            "estimated_diameter_max": 371.5566426699
        }
    },
    "is_potentially_hazardous_asteroid": false,
    "close_approach_data": [
        {
            "close_approach_date": "2019-09-30",
            "close_approach_date_full": "2019-Sep-30 11:37",
            "epoch_date_close_approach": 1569843420000,
            "relative_velocity": {
                "kilometers_per_second": "11.650799904",
                "kilometers_per_hour": "41942.8796544511",
                "miles_per_hour": "26061.6743052894"
            },
            "miss_distance": {
                "astronomical": "0.131056182",
                "lunar": "50.980854798",
                "kilometers": "19605725.67753234",
                "miles": "12182433.029092692"
            },
            "orbiting_body": "Earth"
        }
    ],
    "orbital_data": {
        "orbit_id": "2",
        "orbit_determination_date": "2019-10-23 05:55:54",
        "first_observation_date": "2019-10-06",
        "last_observation_date": "2019-10-10",
        "data_arc_in_days": 4,
        "observations_used": 14,
        "orbit_uncertainty": "9",
        "minimum_orbit_intersection": ".0909145",
        "jupiter_tisserand_invariant": "4.352",
        "epoch_osculation": "2458764.5",
        "eccentricity": ".2937935157408162",
        "semi_major_axis": "1.541468239783847",
        "inclination": "20.21065212164298",
        "ascending_node_longitude": "189.0078141426604",
        "orbital_period": "699.0372170309647",
        "perihelion_distance": "1.088594866214943",
        "perihelion_argument": "189.55598357",
        "aphelion_distance": "1.994341613352751",
        "perihelion_time": "2458763.504433758725",
        "mean_anomaly": ".5127106799567213",
        "mean_motion": ".514994039271665",
        "equinox": "J2000",
        "orbit_class": {
            "orbit_class_type": "AMO",
            "orbit_class_description": "Near-Earth asteroid orbits similar to that of 1221 Amor",
            "orbit_class_range": "1.017 AU < q (perihelion) < 1.3 AU"
        }
    },
    "is_sentry_object": false
}